[{"OBJECT_NAME":"GENMAT-1","OBJECT_ID":"2023-174W","EPOCH":"2026-03-09T18:03:23.351040","MEAN_MOTION":15.32594666,"ECCENTRICITY":0.00074416,"INCLINATION":97.3728,"RA_OF_ASC_NODE":146.8236,"ARG_OF_PERICENTER":169.2515,"MEAN_ANOMALY":190.8888,"EPHEMERIS_TYPE":0,"CLASSIFICATION_TYPE":"U","NORAD_CAT_ID":58276,"ELEMENT_SET_NO":999,"REV_AT_EPOCH":12973,"BSTAR":0.00042157222,"MEAN_MOTION_DOT":0.0001321,"MEAN_MOTION_DDOT":0},{"OBJECT_NAME":"STARLINK-31040","OBJECT_ID":"2024-002T","EPOCH":"2026-03-09T21:11:23.987328","MEAN_MOTION":15.30191897,"ECCENTRICITY":0.00011477,"INCLINATION":53.1598,"RA_OF_ASC_NODE":229.1187,"ARG_OF_PERICENTER":98.5284,"MEAN_ANOMALY":261.5847,"EPHEMERIS_TYPE":0,"CLASSIFICATION_TYPE":"U","NORAD_CAT_ID":58722,"ELEMENT_SET_NO":999,"REV_AT_EPOCH":12204,"BSTAR":-1.1731318e-5,"MEAN_MOTION_DOT":-7.06e-6,"MEAN_MOTION_DDOT":0}]
